OBJECT_NAME,OBJECT_ID,EPOCH,MEAN_MOTION,ECCENTRICITY,INCLINATION,RA_OF_ASC_NODE,ARG_OF_PERICENTER,MEAN_ANOMALY,EPHEMERIS_TYPE,CLASSIFICATION_TYPE,NORAD_CAT_ID,ELEMENT_SET_NO,REV_AT_EPOCH,BSTAR,MEAN_MOTION_DOT,MEAN_MOTION_DDOT
SKYSAT-C4,2016-058B,2026-07-11T14:56:13.543872,15.49356628,.00033674,96.9168,213.3821,122.9938,237.1639,0,U,41771,999,54925,.19370337E-3,.10529E-3,0
SKYSAT-C5,2016-058C,2026-07-12T01:54:34.559424,15.33692145,.0002223,97.0460,232.6062,169.3840,190.7451,0,U,41772,999,54756,.14543E-3,.4664E-4,0
SKYSAT-C2,2016-058D,2026-07-12T01:01:55.169760,15.42631426,.0001917,97.0160,214.2092,6.6282,353.4991,0,U,41773,999,54888,.17453E-3,.7516E-4,0
SKYSAT-C3,2016-058E,2026-07-11T15:03:29.326464,15.53593180,.00023109,96.9000,222.5485,132.6735,227.4714,0,U,41774,999,54990,.24354838E-3,.15432E-3,0
ALSAT-1B,2016-059C,2026-07-12T04:22:55.843392,14.72292481,.0010108,97.7757,200.8675,138.2880,221.9101,0,U,41785,999,52425,.17627E-4,.64E-6,0
PATHFINDER 1,2016-059E,2026-07-12T05:24:33.129216,14.67691077,.0029685,97.8175,191.3725,124.7499,235.6508,0,U,41787,999,52338,.61693E-4,.307E-5,0
SCATSAT 1,2016-059H,2026-07-12T04:02:34.615680,14.79582698,.005501,98.1179,257.1911,166.2317,194.0409,0,U,41790,999,10528,.10064E-3,.716E-5,0
GOKTURK 1A,2016-073A,2026-07-12T03:28:17.078304,14.62792668,.0001463,98.1224,87.4250,79.2597,280.8770,0,U,41875,999,51247,.87943E-4,.402E-5,0
RESOURCESAT-2A,2016-074A,2026-07-12T04:44:07.958112,14.21607541,.000256,98.7523,266.4962,35.4358,324.6988,0,U,41877,999,49785,-.25263E-4,-.1E-5,0
CARTOSAT-2D,2017-008A,2026-07-12T04:28:51.612672,15.19269586,.0005695,97.4098,252.0239,147.0445,213.1145,0,U,41948,999,52137,.11963E-3,.2456E-4,0
SENTINEL-2B,2017-013A,2026-07-12T04:08:27.208032,14.30814513,.0001215,98.5689,267.5935,90.5971,269.5351,0,U,42063,999,48821,.16675E-4,0,0
CARTOSAT-2E,2017-036C,2026-07-12T04:54:21.620160,15.19241985,.0002972,97.4269,252.5926,197.8621,162.2510,0,U,42767,999,50194,.13906E-3,.2862E-4,0
FORMOSAT-5,2017-049A,2026-07-12T03:43:51.718944,14.50907332,.0011537,98.2247,267.9098,13.0830,347.0662,0,U,42920,999,47029,.22149E-4,.44E-6,0
SENTINEL-5P,2017-064A,2026-07-11T19:14:06.156096,14.19522945,.00011121,98.7929,134.7584,92.2595,267.8708,0,U,42969,999,45305,.24611138E-4,.8E-7,0
SKYSAT-C11,2017-068A,2026-07-11T17:05:26.412000,15.59189206,.00009576,97.4366,342.6375,163.5740,196.5548,0,U,42987,999,48706,.24138872E-3,.18813E-3,0
SKYSAT-C10,2017-068B,2026-07-12T04:43:26.397120,15.35077078,.0001407,97.4527,330.2987,109.1454,250.9941,0,U,42988,999,48619,.18867E-3,.6339E-4,0
SKYSAT-C9,2017-068C,2026-07-11T04:28:53.357088,15.42149851,.00089454,97.4444,330.4450,57.4451,302.7659,0,U,42989,999,48645,.19496411E-3,.8274E-4,0
SKYSAT-C8,2017-068D,2026-07-11T20:51:57.265920,15.37449279,.00012484,97.4545,329.8628,101.2013,258.9372,0,U,42990,999,48610,.17273211E-3,.6258E-4,0
SKYSAT-C7,2017-068E,2026-07-12T04:32:29.236128,15.37404124,.0005961,97.4554,331.1783,31.4631,328.6968,0,U,42991,999,48621,.1676E-3,.6063E-4,0
SKYSAT-C6,2017-068F,2026-07-11T20:47:50.825472,15.34133330,.00051622,97.4592,330.7193,97.3545,262.8285,0,U,42992,999,48610,.17430622E-3,.5678E-4,0
CARTOSAT-2F,2018-004A,2026-07-12T04:06:26.242848,15.19258482,.000246,97.4782,252.5598,143.6004,216.5398,0,U,43111,999,47112,.18051E-3,.3737E-4,0
GAOFEN-1 02,2018-031A,2026-07-12T04:05:28.076640,14.76468586,.0001613,98.0521,255.6259,304.0886,56.0171,0,U,43259,999,44638,.47231E-5,-.19E-6,0
GAOFEN-1 03,2018-031B,2026-07-12T05:11:29.520960,14.76460078,.0002643,98.0505,255.5275,23.7883,336.3448,0,U,43260,999,44638,.57606E-4,.349E-5,0
GAOFEN-1 04,2018-031D,2026-07-12T04:36:31.764384,14.76467399,.0001414,98.0522,255.6972,57.5022,302.6324,0,U,43262,999,44637,.17716E-4,.72E-6,0
SENTINEL-3B,2018-039A,2026-07-11T19:19:36.332832,14.26735652,.0001055,98.6234,259.9834,113.9245,246.2046,0,U,43437,999,42763,.32445E-4,.35E-6,0
GAOFEN-5 01,2018-043A,2026-07-11T20:39:01.974528,14.60622043,.00022834,98.4587,164.9673,38.6009,321.5354,0,U,43461,999,43529,.41589373E-4,.153E-5,0
GAOFEN-6,2018-048A,2026-07-12T05:08:45.063744,14.76382495,.0012157,98.0965,255.9092,90.2946,269.9657,0,U,43484,999,43708,.96043E-4,.615E-5,0
GAOFEN-11 01,2018-063A,2026-07-12T04:41:38.785056,15.56007100,.0002887,97.1288,260.0137,212.5925,147.5153,0,U,43585,999,44423,.12723E-3,.8752E-4,0
ICESAT-2,2018-070A,2026-07-12T05:36:22.125888,15.28317834,.0005669,92.0091,297.7470,71.9494,288.2372,0,U,43613,999,43628,.21049E-3,.5806E-4,0
HYSIS,2018-096A,2026-07-12T04:21:58.287168,14.78666074,.0001858,97.9834,259.7324,85.4961,274.6462,0,U,43719,999,41111,.42261E-4,.258E-5,0
