SKYSAT-C4               
1 41771U 16058B   26192.62237898  .00010529  00000+0  19370-3 0  9994
2 41771  96.9168 213.3821 0003367 122.9938 237.1639 15.49356628549259
SKYSAT-C5               
1 41772U 16058C   26193.07956666  .00004664  00000+0  14543-3 0  9996
2 41772  97.0460 232.6062 0002223 169.3840 190.7451 15.33692145547563
SKYSAT-C2               
1 41773U 16058D   26193.04299965  .00007516  00000+0  17453-3 0  9998
2 41773  97.0160 214.2092 0001917   6.6282 353.4991 15.42631426548880
SKYSAT-C3               
1 41774U 16058E   26192.62742276  .00015432  00000+0  24355-3 0  9995
2 41774  96.9000 222.5485 0002310 132.6735 227.4714 15.53593180549904
ALSAT-1B                
1 41785U 16059C   26193.18259078  .00000064  00000+0  17627-4 0  9993
2 41785  97.7757 200.8675 0010108 138.2880 221.9101 14.72292481524251
PATHFINDER 1            
1 41787U 16059E   26193.22538344  .00000307  00000+0  61693-4 0  9998
2 41787  97.8175 191.3725 0029685 124.7499 235.6508 14.67691077523388
SCATSAT 1               
1 41790U 16059H   26193.16845620  .00000716  00000+0  10064-3 0  9992
2 41790  98.1179 257.1911 0055010 166.2317 194.0409 14.79582698105283
GOKTURK 1A              
1 41875U 16073A   26193.14464211  .00000402  00000+0  87943-4 0  9996
2 41875  98.1224  87.4250 0001463  79.2597 280.8770 14.62792668512474
RESOURCESAT-2A          
1 41877U 16074A   26193.19731433 -.00000100  00000+0 -25263-4 0  9991
2 41877  98.7523 266.4962 0002560  35.4358 324.6988 14.21607541497853
CARTOSAT-2D             
1 41948U 17008A   26193.18670848  .00002456  00000+0  11963-3 0  9994
2 41948  97.4098 252.0239 0005695 147.0445 213.1145 15.19269586521375
SENTINEL-2B             
1 42063U 17013A   26193.17253713  .00000000  00000+0  16675-4 0  9995
2 42063  98.5689 267.5935 0001215  90.5971 269.5351 14.30814513488213
CARTOSAT-2E             
1 42767U 17036C   26193.20441690  .00002862  00000+0  13906-3 0  9999
2 42767  97.4269 252.5926 0002972 197.8621 162.2510 15.19241985501941
FORMOSAT-5              
1 42920U 17049A   26193.15545971  .00000044  00000+0  22149-4 0  9995
2 42920  98.2247 267.9098 0011537  13.0830 347.0662 14.50907332470298
SENTINEL-5P             
1 42969U 17064A   26192.80146014  .00000008  00000+0  24611-4 0  9997
2 42969  98.7929 134.7584 0001112  92.2595 267.8708 14.19522945453052
SKYSAT-C11              
1 42987U 17068A   26192.71211125  .00018813  00000+0  24139-3 0  9994
2 42987  97.4366 342.6375 0000957 163.5740 196.5548 15.59189206487063
SKYSAT-C10              
1 42988U 17068B   26193.19683330  .00006339  00000+0  18867-3 0  9990
2 42988  97.4527 330.2987 0001407 109.1454 250.9941 15.35077078486196
SKYSAT-C9               
1 42989U 17068C   26192.18672867  .00008274  00000+0  19496-3 0  9991
2 42989  97.4444 330.4450 0008945  57.4451 302.7659 15.42149851486456
SKYSAT-C8               
1 42990U 17068D   26192.86941280  .00006258  00000+0  17273-3 0  9997
2 42990  97.4545 329.8628 0001248 101.2013 258.9372 15.37449279486107
SKYSAT-C7               
1 42991U 17068E   26193.18922727  .00006063  00000+0  16760-3 0  9993
2 42991  97.4554 331.1783 0005961  31.4631 328.6968 15.37404124486210
SKYSAT-C6               
1 42992U 17068F   26192.86656048  .00005678  00000+0  17431-3 0  9995
2 42992  97.4592 330.7193 0005162  97.3545 262.8285 15.34133330486105
CARTOSAT-2F             
1 43111U 18004A   26193.17113707  .00003737  00000+0  18051-3 0  9998
2 43111  97.4782 252.5598 0002460 143.6004 216.5398 15.19258482471129
GAOFEN-1 02             
1 43259U 18031A   26193.17046385 -.00000019  00000+0  47231-5 0  9993
2 43259  98.0521 255.6259 0001613 304.0886  56.0171 14.76468586446384
GAOFEN-1 03             
1 43260U 18031B   26193.21631390  .00000349  00000+0  57606-4 0  9997
2 43260  98.0505 255.5275 0002643  23.7883 336.3448 14.76460078446380
GAOFEN-1 04             
1 43262U 18031D   26193.19203431  .00000072  00000+0  17716-4 0  9998
2 43262  98.0522 255.6972 0001414  57.5022 302.6324 14.76467399446372
SENTINEL-3B             
1 43437U 18039A   26192.80528163  .00000035  00000+0  32445-4 0  9994
2 43437  98.6234 259.9834 0001055 113.9245 246.2046 14.26735652427638
GAOFEN-5 01             
1 43461U 18043A   26192.86043952  .00000153  00000+0  41589-4 0  9990
2 43461  98.4587 164.9673 0002283  38.6009 321.5354 14.60622043435292
GAOFEN-6                
1 43484U 18048A   26193.21441046  .00000615  00000+0  96043-4 0  9994
2 43484  98.0965 255.9092 0012157  90.2946 269.9657 14.76382495437085
GAOFEN-11 01            
1 43585U 18063A   26193.19558779  .00008752  00000+0  12723-3 0  9994
2 43585  97.1288 260.0137 0002887 212.5925 147.5153 15.56007100444230
ICESAT-2                
1 43613U 18070A   26193.23358942  .00005806  00000+0  21049-3 0  9997
2 43613  92.0091 297.7470 0005669  71.9494 288.2372 15.28317834436283
HYSIS                   
1 43719U 18096A   26193.18192462  .00000258  00000+0  42261-4 0  9995
2 43719  97.9834 259.7324 0001858  85.4961 274.6462 14.78666074411111
